P/2011 S1 (Gibbs),e,2.6888,218.8979,192.5945,8.585777,0.0391773,0.20177869,131.1348,10/19.0/2023,2000,g  8.0,4.0
# From MPC 79022
P/2011 UA134 (Spacewatch-PANSTARRS),e,10.4404,40.4032,32.4110,5.610491,0.0741656,0.63006025,323.8945,10/19.0/2023,2000,g 17.5,4.0
# From MPC 77406
P/2011 V1 (Boattini),e,7.3727,46.8130,269.3468,3.858328,0.1300485,0.54956620,239.7051,10/19.0/2023,2000,g 15.5,4.0
# From MPC 82718
P/2011 W1 (PANSTARRS),e,3.7176,161.8308,282.8179,4.669611,0.0976749,0.28845567,60.3217,10/19.0/2023,2000,g 11.5,4.0
# From MPC 79342
P/2011 Y2 (Boattini),e,6.3833,309.3444,131.9696,6.235319,0.0633018,0.71086133,268.5736,10/19.0/2023,2000,g 15.0,4.0
# From MPEC 2022-K19
P/2012 B1 (PANSTARRS),e,7.6099,36.2163,162.2075,6.533722,0.0590151,0.40936550,221.9470,10/19.0/2023,2000,g  9.0,4.0
# From MPC 78590
P/2012 C3 (PANSTARRS),e,9.0920,135.3677,344.9542,9.748681,0.0323806,0.63011148,359.9758,10/06.0/2011,2000,g 13.0,4.0
# From MPC 84931
P/2012 F2 (PANSTARRS),e,14.6988,226.9595,33.2802,6.340154,0.0617383,0.54036764,237.7506,10/19.0/2023,2000,g 12.0,4.0
# From MPEC 2022-ED3
P/2012 G1 (PANSTARRS),e,12.1692,283.2602,266.0956,4.164729,0.1159642,0.32902712,129.2469,10/19.0/2023,2000,g 15.0,4.0
# From MPC 80898
P/2012 K3 (Gibbs),e,13.1871,125.8185,172.2263,3.629744,0.1425247,0.42205251,217.3427,10/19.0/2023,2000,g 15.0,4.0
# From MPC 88326
P/2012 NJ (La Sagra),e,84.5074,315.6188,338.4103,8.467646,0.0400000,0.84645997,165.7133,10/19.0/2023,2000,g 14.5,4.0
# From MPC 81470
P/2012 O1 (McNaught),e,7.4278,91.9579,238.3029,3.542114,0.1478462,0.59396176,250.0159,10/19.0/2023,2000,g 17.5,4.0
# From MPC 80899
P/2012 O2 (McNaught),e,24.4655,120.6812,183.4674,3.627314,0.1426679,0.53156101,232.2490,10/19.0/2023,2000,g 17.0,4.0
# From MPC 82320
P/2012 T2 (PANSTARRS),e,12.5699,73.8804,310.8318,5.724221,0.0719664,0.16252708,274.6069,10/19.0/2023,2000,g 10.0,4.0
# From MPC 80900
P/2012 T3 (PANSTARRS),e,9.5583,114.3647,195.5273,6.152388,0.0645860,0.61621047,270.1989,10/19.0/2023,2000,g 15.0,4.0
# From MPC 82720
P/2012 U2 (PANSTARRS),e,10.7637,185.3368,228.2928,7.128867,0.0517813,0.50047984,206.3476,10/19.0/2023,2000,g 12.5,4.0
# From MPC 84024
P/2012 US27 (Siding Spring),e,39.3666,49.2303,0.8353,5.163261,0.0840075,0.64842338,329.0709,10/19.0/2023,2000,g 13.5,4.0
# From MPC 82721
P/2012 WA34 (Lemmon-PANSTARRS),e,6.0790,93.7406,356.4780,4.677594,0.0974250,0.34341147,9.9408,10/19.0/2023,2000,g 13.5,4.0
# From MPC 82721
P/2013 AL76 (Catalina),e,44.8698,146.0065,27.0146,6.499228,0.0594855,0.68667522,236.5258,10/19.0/2023,2000,g 16.0,4.0
# From MPC 91612
P/2013 G1 (Kowalski),e,5.4570,221.3120,51.5123,6.901167,0.0543651,0.51044044,195.9970,10/19.0/2023,2000,g 11.0,4.0
# From MPC 84025
P/2013 G4 (PANSTARRS),e,5.9171,339.5991,214.6050,4.435928,0.1054939,0.40903455,51.3674,10/19.0/2023,2000,g 15.0,4.0
# From MPC 91613
P/2013 J2 (McNaught),e,15.5106,289.3542,37.8635,6.224302,0.0634699,0.65684219,234.8801,10/19.0/2023,2000,g 13.0,4.0
# From MPC 86229
P/2013 N3 (PANSTARRS),e,2.1709,17.5265,323.9540,7.398435,0.0489772,0.59243826,172.8853,10/19.0/2023,2000,g 13.0,4.0
# From MPC 85834
P/2013 N5 (PANSTARRS),e,23.4526,187.1737,176.9481,6.797020,0.0556194,0.73235517,208.7460,10/19.0/2023,2000,g 17.0,4.0
# From MPC 85834
P/2013 P1 (PANSTARRS),e,18.7106,160.6243,138.2494,8.586928,0.0391694,0.60371284,152.2962,10/19.0/2023,2000,g 12.0,4.0
# From MPEC 2022-V95
P/2013 R3 (Catalina-PANSTARRS),e,0.8650,342.0424,11.2842,3.031020,0.1867759,0.27556972,331.3236,10/19.0/2023,2000,g 14.0,4.0
# From unp
P/2013 R3-A (Catalina-PANSTARRS),e,0.8642,341.9974,11.3630,3.030776,0.1867985,0.27550068,331.3898,10/19.0/2023,2000,g  9.0,4.0
# From MPEC 2015-M77
P/2013 R3-B (Catalina-PANSTARRS),e,0.8654,342.0532,11.2978,3.030994,0.1867783,0.27554580,331.3187,10/19.0/2023,2000,g  9.0,4.0
# From MPC 85835
P/2013 T1 (PANSTARRS),e,24.2929,10.1083,346.1664,5.855392,0.0695617,0.62416830,258.8557,10/19.0/2023,2000,g 16.5,4.0
# From MPC 86643
P/2013 T2 (Schwartz),e,9.4537,0.8209,345.5813,3.492429,0.1510124,0.50077250,214.1333,10/19.0/2023,2000,g 16.0,4.0
# From MPC 91613
P/2013 W1 (PANSTARRS),e,4.6974,117.8296,1.2219,3.486574,0.1513930,0.59324018,171.6163,10/19.0/2023,2000,g 17.5,4.0
# From MPC101095
P/2013 YG46 (Spacewatch),e,7.8583,48.8442,242.6640,3.277746,0.1660891,0.45519729,47.4205,10/19.0/2023,2000,g 10.0,4.0
# From MPC 89728
P/2014 A2 (Hill),e,24.5532,106.6461,356.1412,5.925977,0.0683226,0.64615083,250.0959,10/19.0/2023,2000,g 15.0,4.0
# From MPC 92981
P/2014 A3 (PANSTARRS),e,13.7165,230.0761,214.1086,4.606972,0.0996737,0.24638607,17.8625,10/19.0/2023,2000,g 12.0,4.0
# From MPC102095
P/2014 C1 (TOTAS),e,2.6919,167.8837,23.9927,3.029291,0.1869359,0.45184648,307.3066,10/19.0/2023,2000,g 15.5,4.0
# From MPEC 2022-WD2
C/2014 F3 (Sheppard-Trujillo),e,6.5239,326.1052,4.8953,14.46670,0.0179122,0.60477332,15.6376,10/19.0/2023,2000,g  6.0,4.0
# From MPC 98560
P/2014 L2 (NEOWISE),e,5.1979,149.3619,182.7146,6.306980,0.0622260,0.64737856,210.0885,10/19.0/2023,2000,g 12.0,4.0
# From MPC 90769
P/2014 L3 (Hill),e,6.2650,115.5185,178.6971,8.181149,0.0421194,0.77200881,143.2005,10/19.0/2023,2000,g 16.0,4.0
# From MPC 91614
P/2014 M4 (PANSTARRS),e,3.3442,263.2119,148.0507,5.866107,0.0693712,0.59602235,222.8644,10/19.0/2023,2000,g 15.0,4.0
# From MPEC 2022-K19
P/2014 MG4 (Spacewatch-PANSTARRS),e,9.3648,311.7105,298.9887,5.013868,0.0877899,0.25875477,331.5385,10/19.0/2023,2000,g  9.5,4.0
# From MPC 98560
P/2014 O3 (PANSTARRS),e,7.7919,87.6326,204.7977,7.581426,0.0472148,0.38351410,164.0580,10/19.0/2023,2000,g 10.5,4.0
# From MPEC 2023-TM6
C/2014 OG392 (PANSTARRS),e,9.0329,145.8145,254.6775,12.25977,0.0229605,0.18652026,15.4003,10/19.0/2023,2000,g  6.0,4.0
# From MPC 91616
P/2014 U4 (PANSTARRS),e,6.4274,11.9210,347.8431,3.510092,0.1498740,0.46457489,146.4842,10/19.0/2023,2000,g 18.0,4.0
# From MPEC 2023-TM6
C/2014 UN271 (Bernardinelli-Bernstein),h,01/19.3755/2031,95.4325,189.9049,326.1625,1.002465,10.952949,2000,2.5,3.2
# From MPC 95211
P/2014 V1 (PANSTARRS),e,22.5194,166.2157,177.6589,5.479390,0.0768432,0.53414362,244.7683,10/19.0/2023,2000,g 14.0,4.0
# From MPC105542
P/2014 W4 (PANSTARRS),e,15.2873,33.3467,67.6200,6.584677,0.0583314,0.35412391,166.0690,10/19.0/2023,2000,g 11.0,4.0
# From MPC 94281
P/2014 X1 (Elenin),e,26.0517,61.5533,33.8901,6.202510,0.0638047,0.71019840,204.8796,10/19.0/2023,2000,g 15.0,4.0
# From MPC 92275
P/2015 A3 (PANSTARRS),e,172.5463,277.3999,249.5576,7.817436,0.0450928,0.85026348,142.6910,10/19.0/2023,2000,g 20.0,4.0
# From MPC 99270
P/2015 B1 (PANSTARRS),e,18.0647,352.8919,188.8004,9.484665,0.0337420,0.36627777,100.0120,10/19.0/2023,2000,g  8.5,4.0
# From MPC109141
P/2015 B4 (Lemmon-PANSTARRS),e,1.7656,266.0973,227.1596,8.511141,0.0396938,0.56126852,126.1993,10/19.0/2023,2000,g 11.0,4.0
# From MPC101096
P/2015 C1 (TOTAS-Gibbs),e,13.9364,348.7868,178.0341,6.568907,0.0585416,0.56222822,181.5520,10/19.0/2023,2000,g 12.5,4.0
# From MPC109141
P/2015 D5 (Kowalski),e,20.5466,74.0828,39.6051,8.948533,0.0368194,0.49074664,128.3298,10/19.0/2023,2000,g  9.0,4.0
# From MPC 96866
P/2015 D6 (Lemmon-PANSTARRS),e,20.2158,45.7816,124.9602,7.131347,0.0517543,0.36183673,157.2341,10/19.0/2023,2000,g 10.5,4.0
# From MPEC 2021-P47
P/2015 HG16 (PANSTARRS),e,18.9908,57.0708,46.8375,4.802817,0.0936397,0.35044932,326.0040,10/19.0/2023,2000,g 12.5,4.0
# From MPC 95213
P/2015 K5 (PANSTARRS),e,39.9384,134.2525,106.2500,6.727534,0.0564833,0.55149218,173.1472,10/19.0/2023,2000,g 13.5,4.0
# From MPC107684
P/2015 M2 (PANSTARRS),e,3.9684,86.7041,225.9564,7.248779,0.0505018,0.17891347,149.4685,10/19.0/2023,2000,g  8.5,4.0
# From MPC 99819
P/2015 P4 (PANSTARRS),e,8.7195,104.7292,280.6555,6.046611,0.0662882,0.58577590,187.1719,10/19.0/2023,2000,g 14.0,4.0
# From MPEC 2022-K19
P/2015 PD229 (Cameron-ISON),e,2.0236,342.7238,352.7115,7.198156,0.0510355,0.32678007,152.3533,10/19.0/2023,2000,g 11.5,2.0
# From MPC 96867
P/2015 Q2 (Pimentel),e,146.5598,228.5613,244.6796,7.352908,0.0494328,0.75104612,146.3980,10/19.0/2023,2000,g 15.5,4.0
# From MPC 98562
P/2015 R1 (PANSTARRS),e,22.6888,48.3743,300.5509,5.881323,0.0691021,0.63395337,209.4698,10/19.0/2023,2000,g 14.0,4.0
# From MPC 95734
P/2015 R2 (PANSTARRS),e,15.4819,168.6165,149.8553,4.483864,0.1038067,0.45252411,316.0219,10/19.0/2023,2000,g 14.5,4.0
# From MPC102953
P/2015 TO19 (Lemmon-PANSTARRS),e,6.5032,321.6651,89.2169,4.549909,0.1015547,0.35965268,282.1979,10/19.0/2023,2000,g 14.0,4.0
# From MPC110080
P/2015 TP200 (LINEAR),e,8.7833,6.9917,82.4549,7.262572,0.0503580,0.53685100,128.1283,10/19.0/2023,2000,g 11.0,4.0
# From MPC101098
P/2015 W2 (Catalina),e,11.6131,294.1658,117.5589,7.290715,0.0500667,0.63558605,146.9269,10/19.0/2023,2000,g 13.0,4.0
# From MPEC 2023-J29
P/2015 X3 (PANSTARRS),e,24.4181,77.2569,306.8906,5.001877,0.0881058,0.44014250,263.0798,10/19.0/2023,2000,g 15.0,4.0
# From MPC115881
P/2015 X6 (PANSTARRS),e,4.5652,106.9376,329.8060,2.751556,0.2159417,0.17348546,236.7367,10/19.0/2023,2000,g 16.0,4.0
# From MPC100282
P/2016 A2 (Christensen),e,26.4052,291.5952,141.3082,4.753788,0.0950921,0.27117421,290.1174,10/19.0/2023,2000,g 11.5,4.0
# From MPEC 2022-OB6
P/2016 A3 (PANSTARRS),e,8.5129,187.1976,340.8467,7.874866,0.0446005,0.38617883,105.6070,10/19.0/2023,2000,g 10.0,4.0
# From MPC102098
P/2016 A7 (PANSTARRS),e,16.6076,221.4607,352.5009,5.036067,0.0872101,0.56509659,244.3783,10/19.0/2023,2000,g 16.0,4.0
# From MPEC 2021-P47
P/2016 G1 (PANSTARRS),e,10.9713,204.0159,111.1436,2.583494,0.2373521,0.21038750,223.4822,10/19.0/2023,2000,g 14.0,4.0
# From MPEC 2017-D91
P/2016 J1-A (PANSTARRS),e,14.3269,199.9161,47.3598,3.177658,0.1739976,0.22741518,105.0773,10/19.0/2023,2000,g 16.5,4.0
# From MPEC 2017-A77
P/2016 J1-B (PANSTARRS),e,14.3296,199.9214,47.2514,3.177298,0.1740272,0.22726246,105.2324,10/19.0/2023,2000,g 17.0,4.0
# From MPC102099
P/2016 P1 (PANSTARRS),e,24.3922,319.5850,270.4971,3.201154,0.1720855,0.28870867,147.9627,10/19.0/2023,2000,g 15.0,4.0
# From MPEC 2023-R20
